<?xml version="1.0" encoding="UTF-8"?>
<kml xmlns="http://www.opengis.net/kml/2.2">
<Document>
  <name>Japón V6 · Osaka Hub · 29 Oct – 20 Nov 2026</name>
  <description>Plan V6 (5 amigos). Importar en Google My Maps: Crear mapa → Importar.</description>
  <Style id="base"><IconStyle><color>ff2d39c0</color><scale>1.2</scale><Icon><href>http://maps.google.com/mapfiles/kml/paddle/red-circle.png</href></Icon></IconStyle></Style>
  <Style id="poi"><IconStyle><color>ff0e74d4</color><Icon><href>http://maps.google.com/mapfiles/kml/paddle/blu-blank.png</href></Icon></IconStyle></Style>
  <Style id="route"><LineStyle><color>ff2d39c0</color><width>3</width></LineStyle></Style>
  <Folder><name>Ruta (ciudades base)</name>
    <Placemark><name>Recorrido V6</name><styleUrl>#route</styleUrl><LineString><tessellate>1</tessellate><coordinates>
      139.6917,35.6895,0 138.766,35.5018,0 138.415,36.74,0 135.502,34.666,0
    </coordinates></LineString></Placemark>
  </Folder>
  <Folder><name>Día 1 · Oct 29 · Tokio·Shinjuku</name>
    <Placemark><name>Omoide Yokocho</name><styleUrl>#base</styleUrl><Point><coordinates>139.6995,35.6936,0</coordinates></Point></Placemark>
  </Folder>
  <Folder><name>Día 2 · Oct 30 · Tokio·Asakusa→Akihabara 🤝</name>
    <Placemark><name>Templo Senso-ji</name><styleUrl>#base</styleUrl><Point><coordinates>139.7967,35.7148,0</coordinates></Point></Placemark>
    <Placemark><name>Akihabara</name><styleUrl>#poi</styleUrl><Point><coordinates>139.7731,35.6984,0</coordinates></Point></Placemark>
  </Folder>
  <Folder><name>Día 3 · Oct 31 · Tokio·Toyosu/Shibuya 🤝</name>
    <Placemark><name>teamLab Planets</name><styleUrl>#base</styleUrl><Point><coordinates>139.7906,35.6478,0</coordinates></Point></Placemark>
    <Placemark><name>teamLab Planets (Toyosu)</name><styleUrl>#poi</styleUrl><Point><coordinates>139.79,35.647,0</coordinates></Point></Placemark>
    <Placemark><name>Halloween en Shibuya</name><styleUrl>#poi</styleUrl><Point><coordinates>139.7006,35.6595,0</coordinates></Point></Placemark>
  </Folder>
  <Folder><name>Día 4 · Nov 1 · Tokio·Shinjuku/Harajuku 🤝</name>
    <Placemark><name>Experiencia samurái (vestir)</name><styleUrl>#base</styleUrl><Point><coordinates>139.7026,35.6954,0</coordinates></Point></Placemark>
    <Placemark><name>Entrenamiento ninja / espada</name><styleUrl>#poi</styleUrl><Point><coordinates>139.703,35.695,0</coordinates></Point></Placemark>
    <Placemark><name>Meiji Jingu</name><styleUrl>#poi</styleUrl><Point><coordinates>139.6993,35.6764,0</coordinates></Point></Placemark>
    <Placemark><name>Harajuku y tiendas (Adidas/flagships)</name><styleUrl>#poi</styleUrl><Point><coordinates>139.7028,35.67,0</coordinates></Point></Placemark>
  </Folder>
  <Folder><name>Día 5 · Nov 2 · Tokio→Kamakura→Enoshima 🤝</name>
    <Placemark><name>Daibutsu (Kotoku-in)</name><styleUrl>#base</styleUrl><Point><coordinates>139.5358,35.3169,0</coordinates></Point></Placemark>
    <Placemark><name>Hasedera</name><styleUrl>#poi</styleUrl><Point><coordinates>139.5331,35.3127,0</coordinates></Point></Placemark>
    <Placemark><name>Enoshima</name><styleUrl>#poi</styleUrl><Point><coordinates>139.48,35.299,0</coordinates></Point></Placemark>
  </Folder>
  <Folder><name>Día 6 · Nov 3 · Tokio→Kawaguchiko 🤝</name>
    <Placemark><name>Lago Kawaguchi</name><styleUrl>#base</styleUrl><Point><coordinates>138.753,35.517,0</coordinates></Point></Placemark>
    <Placemark><name>Monte Fuji (vista)</name><styleUrl>#poi</styleUrl><Point><coordinates>138.7274,35.3606,0</coordinates></Point></Placemark>
    <Placemark><name>Onsen ryokan</name><styleUrl>#poi</styleUrl><Point><coordinates>138.766,35.5018,0</coordinates></Point></Placemark>
  </Folder>
  <Folder><name>Día 7 · Nov 4 · Fuji→Matsumoto→Yudanaka</name>
    <Placemark><name>Castillo Matsumoto</name><styleUrl>#base</styleUrl><Point><coordinates>137.969,36.2384,0</coordinates></Point></Placemark>
    <Placemark><name>Monos de nieve (Jigokudani)</name><styleUrl>#poi</styleUrl><Point><coordinates>138.462,36.733,0</coordinates></Point></Placemark>
    <Placemark><name>Pueblo onsen Yudanaka/Shibu</name><styleUrl>#poi</styleUrl><Point><coordinates>138.415,36.74,0</coordinates></Point></Placemark>
  </Folder>
  <Folder><name>Día 8 · Nov 5 · Nagano→Osaka·Namba</name>
    <Placemark><name>Mercado Kuromon</name><styleUrl>#base</styleUrl><Point><coordinates>135.5063,34.6657,0</coordinates></Point></Placemark>
    <Placemark><name>Umeda Sky Building</name><styleUrl>#poi</styleUrl><Point><coordinates>135.4897,34.7052,0</coordinates></Point></Placemark>
    <Placemark><name>Dotonbori</name><styleUrl>#poi</styleUrl><Point><coordinates>135.501,34.6687,0</coordinates></Point></Placemark>
  </Folder>
  <Folder><name>Día 9 · Nov 6 · Osaka→Kioto (daytrip) 🤝</name>
    <Placemark><name>Fushimi Inari Taisha</name><styleUrl>#base</styleUrl><Point><coordinates>135.7727,34.9671,0</coordinates></Point></Placemark>
    <Placemark><name>Templo Kiyomizu-dera</name><styleUrl>#poi</styleUrl><Point><coordinates>135.785,34.9949,0</coordinates></Point></Placemark>
    <Placemark><name>Ceremonia del té + kimono</name><styleUrl>#poi</styleUrl><Point><coordinates>135.7788,35.0036,0</coordinates></Point></Placemark>
    <Placemark><name>Gion y Yasaka</name><styleUrl>#poi</styleUrl><Point><coordinates>135.7755,35.0036,0</coordinates></Point></Placemark>
  </Folder>
  <Folder><name>Día 10 · Nov 7 · Osaka→Himeji (daytrip)</name>
    <Placemark><name>Castillo de Himeji</name><styleUrl>#base</styleUrl><Point><coordinates>134.6939,34.8394,0</coordinates></Point></Placemark>
    <Placemark><name>Jardín Koko-en</name><styleUrl>#poi</styleUrl><Point><coordinates>134.6896,34.8378,0</coordinates></Point></Placemark>
  </Folder>
  <Folder><name>Día 11 · Nov 8 · Osaka→Kioto (daytrip) 🎂</name>
    <Placemark><name>Bambú de Arashiyama</name><styleUrl>#base</styleUrl><Point><coordinates>135.6717,35.017,0</coordinates></Point></Placemark>
    <Placemark><name>Kinkaku-ji</name><styleUrl>#poi</styleUrl><Point><coordinates>135.7292,35.0394,0</coordinates></Point></Placemark>
    <Placemark><name>🎂 Cena con maiko (Gion)</name><styleUrl>#poi</styleUrl><Point><coordinates>135.775,35.0037,0</coordinates></Point></Placemark>
  </Folder>
  <Folder><name>Día 12 · Nov 9 · Osaka→Kobe (daytrip)</name>
    <Placemark><name>Kobe (puerto y wagyu)</name><styleUrl>#base</styleUrl><Point><coordinates>135.188,34.6851,0</coordinates></Point></Placemark>
    <Placemark><name>Nankinmachi (barrio chino)</name><styleUrl>#poi</styleUrl><Point><coordinates>135.1882,34.6889,0</coordinates></Point></Placemark>
    <Placemark><name>Kitano-cho</name><styleUrl>#poi</styleUrl><Point><coordinates>135.1885,34.7008,0</coordinates></Point></Placemark>
  </Folder>
  <Folder><name>Día 13 · Nov 10 · Osaka·USJ 🤝</name>
    <Placemark><name>Universal Studios Japan</name><styleUrl>#base</styleUrl><Point><coordinates>135.4323,34.6654,0</coordinates></Point></Placemark>
  </Folder>
  <Folder><name>Día 14 · Nov 11 · Osaka·Namba/Shinsekai</name>
    <Placemark><name>Clase de cocina japonesa</name><styleUrl>#base</styleUrl><Point><coordinates>135.502,34.666,0</coordinates></Point></Placemark>
    <Placemark><name>Sumo + chanko nabe</name><styleUrl>#poi</styleUrl><Point><coordinates>135.505,34.666,0</coordinates></Point></Placemark>
    <Placemark><name>Bar de cachetadas (Shinsekai)</name><styleUrl>#poi</styleUrl><Point><coordinates>135.5063,34.6524,0</coordinates></Point></Placemark>
    <Placemark><name>Batalla de baile (Dotonbori)</name><styleUrl>#poi</styleUrl><Point><coordinates>135.501,34.6687,0</coordinates></Point></Placemark>
  </Folder>
  <Folder><name>Día 15 · Nov 12 · Osaka·Centro/Bahía</name>
    <Placemark><name>Castillo de Osaka</name><styleUrl>#base</styleUrl><Point><coordinates>135.5259,34.6873,0</coordinates></Point></Placemark>
    <Placemark><name>Acuario Kaiyukan</name><styleUrl>#poi</styleUrl><Point><coordinates>135.4289,34.6545,0</coordinates></Point></Placemark>
    <Placemark><name>Abeno Harukas (mirador)</name><styleUrl>#poi</styleUrl><Point><coordinates>135.5135,34.6458,0</coordinates></Point></Placemark>
  </Folder>
  <Folder><name>Día 16 · Nov 13 · Osaka·Namba/Shinsaibashi</name>
    <Placemark><name>Shinsaibashi &amp; Amerikamura</name><styleUrl>#base</styleUrl><Point><coordinates>135.501,34.6723,0</coordinates></Point></Placemark>
    <Placemark><name>Spa World (onsen)</name><styleUrl>#poi</styleUrl><Point><coordinates>135.5063,34.6492,0</coordinates></Point></Placemark>
    <Placemark><name>Dotonbori</name><styleUrl>#poi</styleUrl><Point><coordinates>135.501,34.6687,0</coordinates></Point></Placemark>
  </Folder>
  <Folder><name>Día 17 · Nov 14 · Osaka→Tokio 🤝</name>
    <Placemark><name>Golden Gai</name><styleUrl>#base</styleUrl><Point><coordinates>139.7045,35.694,0</coordinates></Point></Placemark>
  </Folder>
  <Folder><name>Día 18 · Nov 15 · Tokio·Harajuku 🤝</name>
    <Placemark><name>Shichi-Go-San (santuarios)</name><styleUrl>#base</styleUrl><Point><coordinates>139.6993,35.6764,0</coordinates></Point></Placemark>
    <Placemark><name>Shinjuku Gyoen</name><styleUrl>#poi</styleUrl><Point><coordinates>139.71,35.6852,0</coordinates></Point></Placemark>
  </Folder>
  <Folder><name>Día 19 · Nov 16 · Tokio·Libre 🤝</name>
    <Placemark><name>Shinjuku Gyoen</name><styleUrl>#base</styleUrl><Point><coordinates>139.71,35.6852,0</coordinates></Point></Placemark>
  </Folder>
  <Folder><name>Día 20 · Nov 17 · Tokio·Ginza/Akihabara 🤝</name>
    <Placemark><name>Ginza y tiendas</name><styleUrl>#base</styleUrl><Point><coordinates>139.765,35.6717,0</coordinates></Point></Placemark>
    <Placemark><name>Akihabara (2ª pasada)</name><styleUrl>#poi</styleUrl><Point><coordinates>139.7731,35.6984,0</coordinates></Point></Placemark>
  </Folder>
  <Folder><name>Día 21 · Nov 18 · Tokio·Tsukiji/Shinjuku 🎂</name>
    <Placemark><name>Tsukiji (exterior)</name><styleUrl>#base</styleUrl><Point><coordinates>139.7707,35.6655,0</coordinates></Point></Placemark>
    <Placemark><name>🎂 Clase de sushi + wagyu</name><styleUrl>#poi</styleUrl><Point><coordinates>139.7,35.694,0</coordinates></Point></Placemark>
  </Folder>
  <Folder><name>Día 22 · Nov 19 · Tokio·Libre</name>
    <Placemark><name>Golden Gai</name><styleUrl>#base</styleUrl><Point><coordinates>139.7045,35.694,0</coordinates></Point></Placemark>
  </Folder>
</Document>
</kml>
