<?xml version="1.0" encoding="UTF-8"?>
<kml xmlns="http://www.opengis.net/kml/2.2">
<Document>
  <name>Japón V4 · sincronizado con AdeS · 27 Oct – 20 Nov 2026</name>
  <description>Plan V4 (nuestro, 5 viajeros). Importar en Google My Maps: Crear mapa → Importar.</description>
  <Style id="base"><IconStyle><color>ff2d39c0</color><scale>1.2</scale><Icon><href>http://maps.google.com/mapfiles/kml/paddle/red-circle.png</href></Icon></IconStyle></Style>
  <Style id="poi"><IconStyle><color>ff0e74d4</color><Icon><href>http://maps.google.com/mapfiles/kml/paddle/blu-blank.png</href></Icon></IconStyle></Style>
  <Style id="route"><LineStyle><color>ff2d39c0</color><width>3</width></LineStyle></Style>
  <Folder><name>Ruta (ciudades base)</name>
    <Placemark><name>Recorrido V4</name><styleUrl>#route</styleUrl><LineString><tessellate>1</tessellate><coordinates>
      139.6917,35.6895,0 138.766,35.5018,0 137.2524,36.1461,0 135.7681,35.0116,0 135.5032,34.6687,0 134.8127,35.6282,0 135.583,34.213,0
    </coordinates></LineString></Placemark>
  </Folder>
  <Folder><name>Día 1 · Oct 27 · Tokio·Shinjuku</name>
    <Placemark><name>Omoide Yokocho</name><styleUrl>#base</styleUrl><Point><coordinates>139.6995,35.6936,0</coordinates></Point></Placemark>
    <Placemark><name>Kabukicho</name><styleUrl>#poi</styleUrl><Point><coordinates>139.7027,35.6955,0</coordinates></Point></Placemark>
  </Folder>
  <Folder><name>Día 2 · Oct 28 · Tokio·Asakusa→Akihabara</name>
    <Placemark><name>Templo Senso-ji</name><styleUrl>#base</styleUrl><Point><coordinates>139.7967,35.7148,0</coordinates></Point></Placemark>
    <Placemark><name>Sumo inflable (Ryogoku)</name><styleUrl>#poi</styleUrl><Point><coordinates>139.7933,35.6967,0</coordinates></Point></Placemark>
    <Placemark><name>Akihabara</name><styleUrl>#poi</styleUrl><Point><coordinates>139.7731,35.6984,0</coordinates></Point></Placemark>
  </Folder>
  <Folder><name>Día 3 · Oct 29 · Nikko (excursión)</name>
    <Placemark><name>Nikko Toshogu</name><styleUrl>#base</styleUrl><Point><coordinates>139.5989,36.758,0</coordinates></Point></Placemark>
    <Placemark><name>Lago Chuzenji</name><styleUrl>#poi</styleUrl><Point><coordinates>139.49,36.73,0</coordinates></Point></Placemark>
    <Placemark><name>Cascada Kegon</name><styleUrl>#poi</styleUrl><Point><coordinates>139.503,36.739,0</coordinates></Point></Placemark>
  </Folder>
  <Folder><name>Día 4 · Oct 30 · Tokio·Azabudai 🤝</name>
    <Placemark><name>teamLab Borderless (Azabudai)</name><styleUrl>#base</styleUrl><Point><coordinates>139.729,35.6595,0</coordinates></Point></Placemark>
    <Placemark><name>Shimokitazawa</name><styleUrl>#poi</styleUrl><Point><coordinates>139.668,35.6613,0</coordinates></Point></Placemark>
  </Folder>
  <Folder><name>Día 5 · Oct 31 · Tokio·Shibuya/Ikebukuro 🤝</name>
    <Placemark><name>Meiji Jingu</name><styleUrl>#base</styleUrl><Point><coordinates>139.6993,35.6764,0</coordinates></Point></Placemark>
    <Placemark><name>Shibuya / Hachiko</name><styleUrl>#poi</styleUrl><Point><coordinates>139.7006,35.659,0</coordinates></Point></Placemark>
    <Placemark><name>Halloween Ikebukuro</name><styleUrl>#poi</styleUrl><Point><coordinates>139.71,35.7289,0</coordinates></Point></Placemark>
  </Folder>
  <Folder><name>Día 6 · Nov 1 · Tokio→Kamakura→Enoshima 🤝</name>
    <Placemark><name>Daibutsu (Kotoku-in)</name><styleUrl>#base</styleUrl><Point><coordinates>139.5358,35.3169,0</coordinates></Point></Placemark>
    <Placemark><name>Hasedera</name><styleUrl>#poi</styleUrl><Point><coordinates>139.5331,35.3127,0</coordinates></Point></Placemark>
    <Placemark><name>Enoshima</name><styleUrl>#poi</styleUrl><Point><coordinates>139.48,35.299,0</coordinates></Point></Placemark>
  </Folder>
  <Folder><name>Día 7 · Nov 2 · Tokio·Odaiba/Shinjuku 🤝</name>
    <Placemark><name>Tokyo Drift · Rainbow Bridge</name><styleUrl>#base</styleUrl><Point><coordinates>139.7634,35.6365,0</coordinates></Point></Placemark>
    <Placemark><name>Odaiba</name><styleUrl>#poi</styleUrl><Point><coordinates>139.7796,35.63,0</coordinates></Point></Placemark>
    <Placemark><name>Karaoke Shinjuku</name><styleUrl>#poi</styleUrl><Point><coordinates>139.7005,35.694,0</coordinates></Point></Placemark>
  </Folder>
  <Folder><name>Día 8 · Nov 3 · Kawaguchiko·Monte Fuji 🤝</name>
    <Placemark><name>Lago Kawaguchi</name><styleUrl>#base</styleUrl><Point><coordinates>138.753,35.517,0</coordinates></Point></Placemark>
    <Placemark><name>Monte Fuji (vista)</name><styleUrl>#poi</styleUrl><Point><coordinates>138.7274,35.3606,0</coordinates></Point></Placemark>
    <Placemark><name>Onsen ryokan</name><styleUrl>#poi</styleUrl><Point><coordinates>138.766,35.5018,0</coordinates></Point></Placemark>
  </Folder>
  <Folder><name>Día 9 · Nov 4 · Fuji→Nakasendo→Takayama</name>
    <Placemark><name>Pagoda Chureito</name><styleUrl>#base</styleUrl><Point><coordinates>138.8009,35.4951,0</coordinates></Point></Placemark>
    <Placemark><name>Magome-juku</name><styleUrl>#poi</styleUrl><Point><coordinates>137.5667,35.5278,0</coordinates></Point></Placemark>
    <Placemark><name>Tsumago-juku</name><styleUrl>#poi</styleUrl><Point><coordinates>137.595,35.5775,0</coordinates></Point></Placemark>
  </Folder>
  <Folder><name>Día 10 · Nov 5 · Takayama→Shirakawa-go</name>
    <Placemark><name>Sanmachi Suji (Takayama)</name><styleUrl>#base</styleUrl><Point><coordinates>137.257,36.14,0</coordinates></Point></Placemark>
    <Placemark><name>Shirakawa-go</name><styleUrl>#poi</styleUrl><Point><coordinates>136.906,36.258,0</coordinates></Point></Placemark>
  </Folder>
  <Folder><name>Día 11 · Nov 6 · Takayama→Ghibli→Kioto 🤝</name>
    <Placemark><name>Ghibli Park</name><styleUrl>#base</styleUrl><Point><coordinates>137.079,35.182,0</coordinates></Point></Placemark>
    <Placemark><name>Pontocho (Kioto)</name><styleUrl>#poi</styleUrl><Point><coordinates>135.7707,35.005,0</coordinates></Point></Placemark>
  </Folder>
  <Folder><name>Día 12 · Nov 7 · Kioto·Fushimi/Arashiyama 🤝</name>
    <Placemark><name>Fushimi Inari Taisha</name><styleUrl>#base</styleUrl><Point><coordinates>135.7727,34.9671,0</coordinates></Point></Placemark>
    <Placemark><name>Bambú de Arashiyama</name><styleUrl>#poi</styleUrl><Point><coordinates>135.6717,35.017,0</coordinates></Point></Placemark>
    <Placemark><name>Kinkaku-ji</name><styleUrl>#poi</styleUrl><Point><coordinates>135.7292,35.0394,0</coordinates></Point></Placemark>
  </Folder>
  <Folder><name>Día 13 · Nov 8 · Kioto→Nara 🤝</name>
    <Placemark><name>Parque de Nara (venados)</name><styleUrl>#base</styleUrl><Point><coordinates>135.843,34.6851,0</coordinates></Point></Placemark>
    <Placemark><name>Templo Todai-ji</name><styleUrl>#poi</styleUrl><Point><coordinates>135.8398,34.689,0</coordinates></Point></Placemark>
    <Placemark><name>Kasuga-Taisha</name><styleUrl>#poi</styleUrl><Point><coordinates>135.8483,34.6817,0</coordinates></Point></Placemark>
  </Folder>
  <Folder><name>Día 14 · Nov 9 · Kioto→Osaka 🤝</name>
    <Placemark><name>Castillo de Osaka</name><styleUrl>#base</styleUrl><Point><coordinates>135.5259,34.6873,0</coordinates></Point></Placemark>
    <Placemark><name>Dotonbori</name><styleUrl>#poi</styleUrl><Point><coordinates>135.501,34.6687,0</coordinates></Point></Placemark>
    <Placemark><name>Shinsekai</name><styleUrl>#poi</styleUrl><Point><coordinates>135.5063,34.6524,0</coordinates></Point></Placemark>
  </Folder>
  <Folder><name>Día 15 · Nov 10 · Osaka·USJ 🤝</name>
    <Placemark><name>Universal Studios Japan</name><styleUrl>#base</styleUrl><Point><coordinates>135.4323,34.6654,0</coordinates></Point></Placemark>
    <Placemark><name>Super Nintendo World</name><styleUrl>#poi</styleUrl><Point><coordinates>135.431,34.666,0</coordinates></Point></Placemark>
  </Folder>
  <Folder><name>Día 16 · Nov 11 · Kinosaki Onsen</name>
    <Placemark><name>Kinosaki Onsen (7 baños)</name><styleUrl>#base</styleUrl><Point><coordinates>134.8097,35.6258,0</coordinates></Point></Placemark>
  </Folder>
  <Folder><name>Día 17 · Nov 12 · Koyasan·Monte Koya</name>
    <Placemark><name>Okunoin (Koyasan)</name><styleUrl>#base</styleUrl><Point><coordinates>135.591,34.215,0</coordinates></Point></Placemark>
    <Placemark><name>Monte Koya</name><styleUrl>#poi</styleUrl><Point><coordinates>135.583,34.213,0</coordinates></Point></Placemark>
  </Folder>
  <Folder><name>Día 18 · Nov 13 · Koyasan→Tokio 🤝</name>
    <Placemark><name>Golden Gai</name><styleUrl>#base</styleUrl><Point><coordinates>139.7045,35.694,0</coordinates></Point></Placemark>
  </Folder>
  <Folder><name>Día 19 · Nov 14 · Tokio·Libre 🤝</name>
    <Placemark><name>Shinjuku Gyoen</name><styleUrl>#base</styleUrl><Point><coordinates>139.71,35.6852,0</coordinates></Point></Placemark>
    <Placemark><name>Mirador Ayuntamiento</name><styleUrl>#poi</styleUrl><Point><coordinates>139.6917,35.6896,0</coordinates></Point></Placemark>
  </Folder>
  <Folder><name>Día 20 · Nov 15 · Tokio·Akihabara/Ginza 🤝</name>
    <Placemark><name>Akihabara</name><styleUrl>#base</styleUrl><Point><coordinates>139.7731,35.6984,0</coordinates></Point></Placemark>
    <Placemark><name>Ginza</name><styleUrl>#poi</styleUrl><Point><coordinates>139.765,35.6717,0</coordinates></Point></Placemark>
  </Folder>
  <Folder><name>Día 21 · Nov 16 · Tokio·Libre 🤝</name>
    <Placemark><name>Golden Gai</name><styleUrl>#base</styleUrl><Point><coordinates>139.7045,35.694,0</coordinates></Point></Placemark>
    <Placemark><name>Shibuya</name><styleUrl>#poi</styleUrl><Point><coordinates>139.7006,35.659,0</coordinates></Point></Placemark>
  </Folder>
  <Folder><name>Día 22 · Nov 17 · Tokio·Libre 🤝</name>
    <Placemark><name>Tsukiji (exterior)</name><styleUrl>#base</styleUrl><Point><coordinates>139.7707,35.6655,0</coordinates></Point></Placemark>
    <Placemark><name>Ginza (omakase)</name><styleUrl>#poi</styleUrl><Point><coordinates>139.765,35.6717,0</coordinates></Point></Placemark>
  </Folder>
  <Folder><name>Día 23 · Nov 18 · Tokio·Libre</name>
    <Placemark><name>Nakameguro</name><styleUrl>#base</styleUrl><Point><coordinates>139.6987,35.6438,0</coordinates></Point></Placemark>
    <Placemark><name>Shibuya</name><styleUrl>#poi</styleUrl><Point><coordinates>139.7006,35.659,0</coordinates></Point></Placemark>
  </Folder>
  <Folder><name>Día 24 · Nov 19 · Tokio·Libre</name>
    <Placemark><name>Shimokitazawa</name><styleUrl>#base</styleUrl><Point><coordinates>139.668,35.6613,0</coordinates></Point></Placemark>
    <Placemark><name>Kabukicho</name><styleUrl>#poi</styleUrl><Point><coordinates>139.7027,35.6955,0</coordinates></Point></Placemark>
  </Folder>
</Document>
</kml>
