<?xml version="1.0" encoding="UTF-8"?>
<kml xmlns="http://www.opengis.net/kml/2.2">
<Document>
  <name>Japón v3 · 27 Oct – 20 Nov 2026</name>
  <description>Plan principal (v3). Importar en Google My Maps: Crear mapa → Importar.</description>
  <Style id="base"><IconStyle><color>ff2d39c0</color><scale>1.2</scale><Icon><href>http://maps.google.com/mapfiles/kml/paddle/red-circle.png</href></Icon></IconStyle></Style>
  <Style id="poi"><IconStyle><color>ff0e74d4</color><Icon><href>http://maps.google.com/mapfiles/kml/paddle/blu-blank.png</href></Icon></IconStyle></Style>
  <Style id="route"><LineStyle><color>ff2d39c0</color><width>3</width></LineStyle></Style>
  <Folder><name>Ruta (ciudades base)</name>
    <Placemark><name>Recorrido v3</name><styleUrl>#route</styleUrl><LineString><tessellate>1</tessellate><coordinates>
      139.6917,35.6895,0 138.766,35.5018,0 137.2524,36.1461,0 135.7681,35.0116,0 135.5032,34.6687,0 134.8127,35.6282,0 135.583,34.213,0
    </coordinates></LineString></Placemark>
  </Folder>
  <Folder><name>Día 1 · Oct 27 · Tokio·Shinjuku</name>
    <Placemark><name>Omoide Yokocho</name><styleUrl>#base</styleUrl><Point><coordinates>139.6995,35.6936,0</coordinates></Point></Placemark>
    <Placemark><name>Kabukicho</name><styleUrl>#poi</styleUrl><Point><coordinates>139.7027,35.6955,0</coordinates></Point></Placemark>
  </Folder>
  <Folder><name>Día 2 · Oct 28 · Tokio·Asakusa→Akihabara</name>
    <Placemark><name>Templo Senso-ji</name><styleUrl>#base</styleUrl><Point><coordinates>139.7967,35.7148,0</coordinates></Point></Placemark>
    <Placemark><name>Calle Nakamise</name><styleUrl>#poi</styleUrl><Point><coordinates>139.7964,35.7113,0</coordinates></Point></Placemark>
    <Placemark><name>Akihabara</name><styleUrl>#poi</styleUrl><Point><coordinates>139.7731,35.6984,0</coordinates></Point></Placemark>
    <Placemark><name>Ameyoko (Ueno)</name><styleUrl>#poi</styleUrl><Point><coordinates>139.7745,35.708,0</coordinates></Point></Placemark>
  </Folder>
  <Folder><name>Día 3 · Oct 29 · Tokio·Ryogoku→Shibuya</name>
    <Placemark><name>Ryogoku (sumo)</name><styleUrl>#base</styleUrl><Point><coordinates>139.7933,35.6967,0</coordinates></Point></Placemark>
    <Placemark><name>Meiji Jingu</name><styleUrl>#poi</styleUrl><Point><coordinates>139.6993,35.6764,0</coordinates></Point></Placemark>
    <Placemark><name>Takeshita (Harajuku)</name><styleUrl>#poi</styleUrl><Point><coordinates>139.7031,35.6716,0</coordinates></Point></Placemark>
    <Placemark><name>Shibuya Sky / Scramble</name><styleUrl>#poi</styleUrl><Point><coordinates>139.7004,35.6595,0</coordinates></Point></Placemark>
  </Folder>
  <Folder><name>Día 4 · Oct 30 · Tokio·Azabudai→Kinshicho</name>
    <Placemark><name>TeamLab Borderless (Azabudai)</name><styleUrl>#base</styleUrl><Point><coordinates>139.729,35.6595,0</coordinates></Point></Placemark>
    <Placemark><name>Shimokitazawa</name><styleUrl>#poi</styleUrl><Point><coordinates>139.668,35.6613,0</coordinates></Point></Placemark>
    <Placemark><name>Tokyo Drift · Rainbow Bridge</name><styleUrl>#poi</styleUrl><Point><coordinates>139.7634,35.6365,0</coordinates></Point></Placemark>
  </Folder>
  <Folder><name>Día 5 · Oct 31 · Nikko (excursión)</name>
    <Placemark><name>Nikko Toshogu</name><styleUrl>#base</styleUrl><Point><coordinates>139.5989,36.758,0</coordinates></Point></Placemark>
    <Placemark><name>Lago Chuzenji</name><styleUrl>#poi</styleUrl><Point><coordinates>139.49,36.73,0</coordinates></Point></Placemark>
    <Placemark><name>Cascada Kegon</name><styleUrl>#poi</styleUrl><Point><coordinates>139.503,36.739,0</coordinates></Point></Placemark>
  </Folder>
  <Folder><name>Día 6 · Nov 1 · Kawaguchiko·Monte Fuji</name>
    <Placemark><name>Lago Kawaguchi</name><styleUrl>#base</styleUrl><Point><coordinates>138.753,35.517,0</coordinates></Point></Placemark>
    <Placemark><name>Momiji Kairo</name><styleUrl>#poi</styleUrl><Point><coordinates>138.747,35.523,0</coordinates></Point></Placemark>
    <Placemark><name>Monte Fuji (vista)</name><styleUrl>#poi</styleUrl><Point><coordinates>138.7274,35.3606,0</coordinates></Point></Placemark>
    <Placemark><name>Onsen ryokan</name><styleUrl>#poi</styleUrl><Point><coordinates>138.766,35.5018,0</coordinates></Point></Placemark>
  </Folder>
  <Folder><name>Día 7 · Nov 2 · Fuji→Kamakura→Enoshima</name>
    <Placemark><name>Pagoda Chureito</name><styleUrl>#base</styleUrl><Point><coordinates>138.8009,35.4951,0</coordinates></Point></Placemark>
    <Placemark><name>Daibutsu (Kotoku-in)</name><styleUrl>#poi</styleUrl><Point><coordinates>139.5358,35.3169,0</coordinates></Point></Placemark>
    <Placemark><name>Hasedera</name><styleUrl>#poi</styleUrl><Point><coordinates>139.5331,35.3127,0</coordinates></Point></Placemark>
    <Placemark><name>Enoshima</name><styleUrl>#poi</styleUrl><Point><coordinates>139.48,35.299,0</coordinates></Point></Placemark>
  </Folder>
  <Folder><name>Día 8 · Nov 3 · Tokio→Nakasendo→Takayama</name>
    <Placemark><name>Castillo Matsumoto</name><styleUrl>#base</styleUrl><Point><coordinates>137.969,36.2384,0</coordinates></Point></Placemark>
    <Placemark><name>Magome-juku</name><styleUrl>#poi</styleUrl><Point><coordinates>137.5667,35.5278,0</coordinates></Point></Placemark>
    <Placemark><name>Tsumago-juku</name><styleUrl>#poi</styleUrl><Point><coordinates>137.595,35.5775,0</coordinates></Point></Placemark>
  </Folder>
  <Folder><name>Día 9 · Nov 4 · Takayama→Shirakawa-go</name>
    <Placemark><name>Mercado Miyagawa</name><styleUrl>#base</styleUrl><Point><coordinates>137.258,36.143,0</coordinates></Point></Placemark>
    <Placemark><name>Sanmachi Suji</name><styleUrl>#poi</styleUrl><Point><coordinates>137.257,36.14,0</coordinates></Point></Placemark>
    <Placemark><name>Shirakawa-go</name><styleUrl>#poi</styleUrl><Point><coordinates>136.906,36.258,0</coordinates></Point></Placemark>
  </Folder>
  <Folder><name>Día 10 · Nov 5 · Takayama→Nagoya→Ghibli Park</name>
    <Placemark><name>Ghibli Park</name><styleUrl>#base</styleUrl><Point><coordinates>137.079,35.182,0</coordinates></Point></Placemark>
  </Folder>
  <Folder><name>Día 11 · Nov 6 · Kioto·Higashiyama</name>
    <Placemark><name>Kiyomizu-dera</name><styleUrl>#base</styleUrl><Point><coordinates>135.785,34.9949,0</coordinates></Point></Placemark>
    <Placemark><name>Sannen-zaka / Ninen-zaka</name><styleUrl>#poi</styleUrl><Point><coordinates>135.782,34.9967,0</coordinates></Point></Placemark>
    <Placemark><name>Gion · Yasaka</name><styleUrl>#poi</styleUrl><Point><coordinates>135.7755,35.0036,0</coordinates></Point></Placemark>
    <Placemark><name>Eikan-do (momiji noche)</name><styleUrl>#poi</styleUrl><Point><coordinates>135.795,35.014,0</coordinates></Point></Placemark>
  </Folder>
  <Folder><name>Día 12 · Nov 7 · Kioto·Arashiyama→Kinkaku-ji</name>
    <Placemark><name>Bosque de Bambú Arashiyama</name><styleUrl>#base</styleUrl><Point><coordinates>135.6717,35.017,0</coordinates></Point></Placemark>
    <Placemark><name>Tenryu-ji</name><styleUrl>#poi</styleUrl><Point><coordinates>135.6738,35.0159,0</coordinates></Point></Placemark>
    <Placemark><name>Kinkaku-ji</name><styleUrl>#poi</styleUrl><Point><coordinates>135.7292,35.0394,0</coordinates></Point></Placemark>
    <Placemark><name>Pontocho (cena)</name><styleUrl>#poi</styleUrl><Point><coordinates>135.7707,35.005,0</coordinates></Point></Placemark>
  </Folder>
  <Folder><name>Día 13 · Nov 8 · Kioto·Fushimi Inari→Uji</name>
    <Placemark><name>Fushimi Inari Taisha</name><styleUrl>#base</styleUrl><Point><coordinates>135.7727,34.9671,0</coordinates></Point></Placemark>
    <Placemark><name>Byodo-in (Uji)</name><styleUrl>#poi</styleUrl><Point><coordinates>135.8076,34.8893,0</coordinates></Point></Placemark>
    <Placemark><name>Ceremonia del té (Uji)</name><styleUrl>#poi</styleUrl><Point><coordinates>135.807,34.891,0</coordinates></Point></Placemark>
  </Folder>
  <Folder><name>Día 14 · Nov 9 · Kioto·Kurama→Kibune</name>
    <Placemark><name>Kurama-dera</name><styleUrl>#base</styleUrl><Point><coordinates>135.77,35.1167,0</coordinates></Point></Placemark>
    <Placemark><name>Kibune</name><styleUrl>#poi</styleUrl><Point><coordinates>135.762,35.123,0</coordinates></Point></Placemark>
    <Placemark><name>Onsen Kurama</name><styleUrl>#poi</styleUrl><Point><coordinates>135.768,35.119,0</coordinates></Point></Placemark>
  </Folder>
  <Folder><name>Día 15 · Nov 10 · Kioto·Día Libre</name>
    <Placemark><name>Nishiki Market</name><styleUrl>#base</styleUrl><Point><coordinates>135.7649,35.005,0</coordinates></Point></Placemark>
    <Placemark><name>Teramachi</name><styleUrl>#poi</styleUrl><Point><coordinates>135.766,35.008,0</coordinates></Point></Placemark>
    <Placemark><name>Karaoke Kawaramachi</name><styleUrl>#poi</styleUrl><Point><coordinates>135.769,35.004,0</coordinates></Point></Placemark>
  </Folder>
  <Folder><name>Día 16 · Nov 11 · Kioto→Osaka</name>
    <Placemark><name>Castillo de Osaka</name><styleUrl>#base</styleUrl><Point><coordinates>135.5259,34.6873,0</coordinates></Point></Placemark>
    <Placemark><name>Shinsekai</name><styleUrl>#poi</styleUrl><Point><coordinates>135.5063,34.6524,0</coordinates></Point></Placemark>
    <Placemark><name>Dotonbori</name><styleUrl>#poi</styleUrl><Point><coordinates>135.501,34.6687,0</coordinates></Point></Placemark>
  </Folder>
  <Folder><name>Día 17 · Nov 12 · Osaka</name>
    <Placemark><name>Amerikamura</name><styleUrl>#base</styleUrl><Point><coordinates>135.498,34.672,0</coordinates></Point></Placemark>
    <Placemark><name>Den-Den Town</name><styleUrl>#poi</styleUrl><Point><coordinates>135.506,34.661,0</coordinates></Point></Placemark>
    <Placemark><name>Ura-Namba</name><styleUrl>#poi</styleUrl><Point><coordinates>135.502,34.665,0</coordinates></Point></Placemark>
  </Folder>
  <Folder><name>Día 18 · Nov 13 · Osaka</name>
    <Placemark><name>Mercado Kuromon</name><styleUrl>#base</styleUrl><Point><coordinates>135.506,34.6657,0</coordinates></Point></Placemark>
    <Placemark><name>Spa World</name><styleUrl>#poi</styleUrl><Point><coordinates>135.505,34.652,0</coordinates></Point></Placemark>
  </Folder>
  <Folder><name>Día 19 · Nov 14 · Osaka·USJ</name>
    <Placemark><name>Universal Studios Japan</name><styleUrl>#base</styleUrl><Point><coordinates>135.4323,34.6654,0</coordinates></Point></Placemark>
    <Placemark><name>Super Nintendo World</name><styleUrl>#poi</styleUrl><Point><coordinates>135.431,34.666,0</coordinates></Point></Placemark>
  </Folder>
  <Folder><name>Día 20 · Nov 15 · Kobe (excursión)</name>
    <Placemark><name>Castillo Himeji (opcional, en ruta)</name><styleUrl>#base</styleUrl><Point><coordinates>134.6939,34.8394,0</coordinates></Point></Placemark>
    <Placemark><name>Barrio Kitano (Ijinkan)</name><styleUrl>#poi</styleUrl><Point><coordinates>135.188,34.7016,0</coordinates></Point></Placemark>
    <Placemark><name>Nankinmachi (Chinatown)</name><styleUrl>#poi</styleUrl><Point><coordinates>135.1875,34.6886,0</coordinates></Point></Placemark>
    <Placemark><name>Meriken Park · Kobe Port Tower</name><styleUrl>#poi</styleUrl><Point><coordinates>135.186,34.6822,0</coordinates></Point></Placemark>
    <Placemark><name>Arima Onsen (opcional)</name><styleUrl>#poi</styleUrl><Point><coordinates>135.248,34.7975,0</coordinates></Point></Placemark>
  </Folder>
  <Folder><name>Día 21 · Nov 16 · Kinosaki Onsen</name>
    <Placemark><name>Kinosaki Onsen (7 baños)</name><styleUrl>#base</styleUrl><Point><coordinates>134.8097,35.6258,0</coordinates></Point></Placemark>
  </Folder>
  <Folder><name>Día 22 · Nov 17 · Koyasan·Monte Koya</name>
    <Placemark><name>Okunoin (Koyasan)</name><styleUrl>#base</styleUrl><Point><coordinates>135.591,34.215,0</coordinates></Point></Placemark>
    <Placemark><name>Monte Koya (templos)</name><styleUrl>#poi</styleUrl><Point><coordinates>135.583,34.213,0</coordinates></Point></Placemark>
  </Folder>
  <Folder><name>Día 23 · Nov 18 · Koyasan→Osaka→Tokio</name>
    <Placemark><name>Golden Gai</name><styleUrl>#base</styleUrl><Point><coordinates>139.7045,35.694,0</coordinates></Point></Placemark>
  </Folder>
  <Folder><name>Día 24 · Nov 19 · Tokio·Libre</name>
    <Placemark><name>Ginza</name><styleUrl>#base</styleUrl><Point><coordinates>139.765,35.6717,0</coordinates></Point></Placemark>
    <Placemark><name>Akihabara (2ª)</name><styleUrl>#poi</styleUrl><Point><coordinates>139.7731,35.6984,0</coordinates></Point></Placemark>
    <Placemark><name>Tsukiji (exterior)</name><styleUrl>#poi</styleUrl><Point><coordinates>139.7707,35.6655,0</coordinates></Point></Placemark>
  </Folder>
</Document>
</kml>
